INSAT-3D                
1 39216U 13038B   26168.92244843 -.00000346  00000+0  00000+0 0  9997
2 39216   1.9288  82.5294 0000580 314.9768 330.2447  1.00268839 47081
ICEYE-X7                
1 46496U 20068L   26168.92569030  .00010365  00000+0  34276-3 0  9991
2 46496  97.7500 135.4859 0006368 340.7148  19.3850 15.31539027314903
ICEYE-X71               
1 68494U 26067CG  26168.86660625  .00001670  00000+0  17171-3 0  9997
2 68494  97.7611 127.0916 0003284  50.8282 309.3228 14.91669676 11826
ICEYE-X73               
1 68496U 26067CJ  26168.83741630  .00002546  00000+0  25526-3 0  9998
2 68496  97.7610 127.1266 0001160  21.4952 338.6316 14.92225920 11829
ICEYE-X75               
1 68497U 26067CK  26168.83930610  .00001087  00000+0  11241-3 0  9995
2 68497  97.7592 127.1072 0001013  21.0299 339.0961 14.92122101 11829
ICEYE-X74               
1 68500U 26067CN  26168.86574971  .00001620  00000+0  16666-3 0  9996
2 68500  97.7617 127.0989 0003171  48.3444 311.8046 14.91670749 11826
ICEYE-X76               
1 68502U 26067CQ  26168.86148028  .00000714  00000+0  76470-4 0  9991
2 68502  97.7625 127.1102 0002876  44.9495 315.1956 14.91700245 11826
ICEYE-X72               
1 68504U 26067CS  26168.84531924  .00002208  00000+0  22265-3 0  9994
2 68504  97.7626 127.1316 0002133  27.4032 332.7299 14.92131795 11829
ICEYE-X78               
1 68995U 26100R   26168.67917807  .00001790  00000+0  18311-3 0  9997
2 68995  97.7365  66.1267 0003811 109.1925 250.9706 14.91770064  6772
ICEYE-X82               
1 68996U 26100S   26168.62621951  .00001558  00000+0  16189-3 0  9998
2 68996  97.7360  66.0389 0005196 130.3262 229.8412 14.91304495  6769
