{
 "generated_at": "2026-06-18T09:14:20Z",
 "sources": [
  {
   "name": "CelesTrak",
   "url": "https://celestrak.org/NORAD/elements/",
   "license": "frei verfügbar; Attribution. Ursprünglich USSPACECOM/Space-Track."
  },
  {
   "name": "GCAT (J. McDowell, planet4589.org)",
   "url": "https://planet4589.org/space/gcat/",
   "license": "CC-BY 4.0"
  }
 ],
 "satellites": [
  {
   "norad": 46496,
   "name": "ICEYE-X7",
   "intl": "2020-068L",
   "group": "sar",
   "gcat": {
    "class": "B",
    "category": "IMG-R",
    "owner": "ICEYE",
    "state": "FI"
   },
   "omm": {
    "OBJECT_NAME": "ICEYE-X7",
    "OBJECT_ID": "2020-068L",
    "EPOCH": "2026-06-17T22:12:59.641920",
    "MEAN_MOTION": 15.31539027,
    "ECCENTRICITY": 0.00063689,
    "INCLINATION": 97.75,
    "RA_OF_ASC_NODE": 135.4859,
    "ARG_OF_PERICENTER": 340.7148,
    "MEAN_ANOMALY": 19.385,
    "EPHEMERIS_TYPE": 0,
    "CLASSIFICATION_TYPE": "U",
    "NORAD_CAT_ID": 46496,
    "ELEMENT_SET_NO": 999,
    "REV_AT_EPOCH": 31490,
    "BSTAR": 0.00034275877,
    "MEAN_MOTION_DOT": 0.00010365,
    "MEAN_MOTION_DDOT": 0
   }
  },
  {
   "norad": 68494,
   "name": "ICEYE-X71",
   "intl": "2026-067CG",
   "group": "sar",
   "gcat": {
    "class": "B",
    "category": "IMG-R",
    "owner": "ICEYE",
    "state": "FI"
   },
   "omm": {
    "OBJECT_NAME": "ICEYE-X71",
    "OBJECT_ID": "2026-067CG",
    "EPOCH": "2026-06-17T20:47:54.780000",
    "MEAN_MOTION": 14.91669676,
    "ECCENTRICITY": 0.00032843,
    "INCLINATION": 97.7611,
    "RA_OF_ASC_NODE": 127.0916,
    "ARG_OF_PERICENTER": 50.8282,
    "MEAN_ANOMALY": 309.3228,
    "EPHEMERIS_TYPE": 0,
    "CLASSIFICATION_TYPE": "U",
    "NORAD_CAT_ID": 68494,
    "ELEMENT_SET_NO": 999,
    "REV_AT_EPOCH": 1182,
    "BSTAR": 0.00017170609,
    "MEAN_MOTION_DOT": 0.0000167,
    "MEAN_MOTION_DDOT": 0
   }
  },
  {
   "norad": 68504,
   "name": "ICEYE-X72",
   "intl": "2026-067CS",
   "group": "sar",
   "gcat": {
    "class": "B",
    "category": "IMG-R",
    "owner": "ICEYE",
    "state": "FI"
   },
   "omm": {
    "OBJECT_NAME": "ICEYE-X72",
    "OBJECT_ID": "2026-067CS",
    "EPOCH": "2026-06-17T20:17:15.582336",
    "MEAN_MOTION": 14.92131795,
    "ECCENTRICITY": 0.00021339,
    "INCLINATION": 97.7626,
    "RA_OF_ASC_NODE": 127.1316,
    "ARG_OF_PERICENTER": 27.4032,
    "MEAN_ANOMALY": 332.7299,
    "EPHEMERIS_TYPE": 0,
    "CLASSIFICATION_TYPE": "U",
    "NORAD_CAT_ID": 68504,
    "ELEMENT_SET_NO": 999,
    "REV_AT_EPOCH": 1182,
    "BSTAR": 0.00022264729,
    "MEAN_MOTION_DOT": 0.00002208,
    "MEAN_MOTION_DDOT": 0
   }
  },
  {
   "norad": 68496,
   "name": "ICEYE-X73",
   "intl": "2026-067CJ",
   "group": "sar",
   "gcat": {
    "class": "B",
    "category": "IMG-R",
    "owner": "ICEYE",
    "state": "FI"
   },
   "omm": {
    "OBJECT_NAME": "ICEYE-X73",
    "OBJECT_ID": "2026-067CJ",
    "EPOCH": "2026-06-17T20:05:52.768320",
    "MEAN_MOTION": 14.9222592,
    "ECCENTRICITY": 0.00011606,
    "INCLINATION": 97.761,
    "RA_OF_ASC_NODE": 127.1266,
    "ARG_OF_PERICENTER": 21.4952,
    "MEAN_ANOMALY": 338.6316,
    "EPHEMERIS_TYPE": 0,
    "CLASSIFICATION_TYPE": "U",
    "NORAD_CAT_ID": 68496,
    "ELEMENT_SET_NO": 999,
    "REV_AT_EPOCH": 1182,
    "BSTAR": 0.00025525627,
    "MEAN_MOTION_DOT": 0.00002546,
    "MEAN_MOTION_DDOT": 0
   }
  },
  {
   "norad": 68500,
   "name": "ICEYE-X74",
   "intl": "2026-067CN",
   "group": "sar",
   "gcat": {
    "class": "B",
    "category": "IMG-R",
    "owner": "ICEYE",
    "state": "FI"
   },
   "omm": {
    "OBJECT_NAME": "ICEYE-X74",
    "OBJECT_ID": "2026-067CN",
    "EPOCH": "2026-06-17T20:46:40.774944",
    "MEAN_MOTION": 14.91670749,
    "ECCENTRICITY": 0.0003171,
    "INCLINATION": 97.7617,
    "RA_OF_ASC_NODE": 127.0989,
    "ARG_OF_PERICENTER": 48.3444,
    "MEAN_ANOMALY": 311.8046,
    "EPHEMERIS_TYPE": 0,
    "CLASSIFICATION_TYPE": "U",
    "NORAD_CAT_ID": 68500,
    "ELEMENT_SET_NO": 999,
    "REV_AT_EPOCH": 1182,
    "BSTAR": 0.00016666231,
    "MEAN_MOTION_DOT": 0.0000162,
    "MEAN_MOTION_DDOT": 0
   }
  },
  {
   "norad": 68497,
   "name": "ICEYE-X75",
   "intl": "2026-067CK",
   "group": "sar",
   "gcat": {
    "class": "B",
    "category": "IMG-R",
    "owner": "ICEYE",
    "state": "FI"
   },
   "omm": {
    "OBJECT_NAME": "ICEYE-X75",
    "OBJECT_ID": "2026-067CK",
    "EPOCH": "2026-06-17T20:08:36.047040",
    "MEAN_MOTION": 14.92122101,
    "ECCENTRICITY": 0.00010132,
    "INCLINATION": 97.7592,
    "RA_OF_ASC_NODE": 127.1072,
    "ARG_OF_PERICENTER": 21.0299,
    "MEAN_ANOMALY": 339.0961,
    "EPHEMERIS_TYPE": 0,
    "CLASSIFICATION_TYPE": "U",
    "NORAD_CAT_ID": 68497,
    "ELEMENT_SET_NO": 999,
    "REV_AT_EPOCH": 1182,
    "BSTAR": 0.00011240923,
    "MEAN_MOTION_DOT": 0.00001087,
    "MEAN_MOTION_DDOT": 0
   }
  },
  {
   "norad": 68502,
   "name": "ICEYE-X76",
   "intl": "2026-067CQ",
   "group": "sar",
   "gcat": {
    "class": "B",
    "category": "IMG-R",
    "owner": "ICEYE",
    "state": "FI"
   },
   "omm": {
    "OBJECT_NAME": "ICEYE-X76",
    "OBJECT_ID": "2026-067CQ",
    "EPOCH": "2026-06-17T20:40:31.896192",
    "MEAN_MOTION": 14.91700245,
    "ECCENTRICITY": 0.0002876,
    "INCLINATION": 97.7625,
    "RA_OF_ASC_NODE": 127.1102,
    "ARG_OF_PERICENTER": 44.9495,
    "MEAN_ANOMALY": 315.1956,
    "EPHEMERIS_TYPE": 0,
    "CLASSIFICATION_TYPE": "U",
    "NORAD_CAT_ID": 68502,
    "ELEMENT_SET_NO": 999,
    "REV_AT_EPOCH": 1182,
    "BSTAR": 0.000076470201,
    "MEAN_MOTION_DOT": 0.00000714,
    "MEAN_MOTION_DDOT": 0
   }
  },
  {
   "norad": 68995,
   "name": "ICEYE-X78",
   "intl": "2026-100R",
   "group": "sar",
   "gcat": {
    "class": "B",
    "category": "IMG-R",
    "owner": "MON/WKL",
    "state": "PL"
   },
   "omm": {
    "OBJECT_NAME": "ICEYE-X78",
    "OBJECT_ID": "2026-100R",
    "EPOCH": "2026-06-17T16:18:00.985248",
    "MEAN_MOTION": 14.91770064,
    "ECCENTRICITY": 0.00038116,
    "INCLINATION": 97.7365,
    "RA_OF_ASC_NODE": 66.1267,
    "ARG_OF_PERICENTER": 109.1925,
    "MEAN_ANOMALY": 250.9706,
    "EPHEMERIS_TYPE": 0,
    "CLASSIFICATION_TYPE": "U",
    "NORAD_CAT_ID": 68995,
    "ELEMENT_SET_NO": 999,
    "REV_AT_EPOCH": 677,
    "BSTAR": 0.00018311198,
    "MEAN_MOTION_DOT": 0.0000179,
    "MEAN_MOTION_DDOT": 0
   }
  },
  {
   "norad": 68996,
   "name": "ICEYE-X82",
   "intl": "2026-100S",
   "group": "sar",
   "gcat": {
    "class": "B",
    "category": "IMG-R",
    "owner": "ICEYE",
    "state": "FI"
   },
   "omm": {
    "OBJECT_NAME": "ICEYE-X82",
    "OBJECT_ID": "2026-100S",
    "EPOCH": "2026-06-17T15:01:45.365664",
    "MEAN_MOTION": 14.91304495,
    "ECCENTRICITY": 0.00051962,
    "INCLINATION": 97.736,
    "RA_OF_ASC_NODE": 66.0389,
    "ARG_OF_PERICENTER": 130.3262,
    "MEAN_ANOMALY": 229.8412,
    "EPHEMERIS_TYPE": 0,
    "CLASSIFICATION_TYPE": "U",
    "NORAD_CAT_ID": 68996,
    "ELEMENT_SET_NO": 999,
    "REV_AT_EPOCH": 676,
    "BSTAR": 0.00016188745,
    "MEAN_MOTION_DOT": 0.00001558,
    "MEAN_MOTION_DDOT": 0
   }
  },
  {
   "norad": 39216,
   "name": "INSAT-3D",
   "intl": "2013-038B",
   "group": "weather",
   "gcat": {
    "class": "C",
    "category": "MET",
    "owner": "ISRO",
    "state": "IN"
   },
   "omm": {
    "OBJECT_NAME": "INSAT-3D",
    "OBJECT_ID": "2013-038B",
    "EPOCH": "2026-06-17T22:08:19.544352",
    "MEAN_MOTION": 1.00268839,
    "ECCENTRICITY": 0.00005805,
    "INCLINATION": 1.9288,
    "RA_OF_ASC_NODE": 82.5294,
    "ARG_OF_PERICENTER": 314.9768,
    "MEAN_ANOMALY": 330.2447,
    "EPHEMERIS_TYPE": 0,
    "CLASSIFICATION_TYPE": "U",
    "NORAD_CAT_ID": 39216,
    "ELEMENT_SET_NO": 999,
    "REV_AT_EPOCH": 4708,
    "BSTAR": 0,
    "MEAN_MOTION_DOT": -0.00000346,
    "MEAN_MOTION_DDOT": 0
   }
  }
 ]
}
